satname,norad_id,inclination_deg,eccentricity,mean_motion_rev_per_day,perigee_km,apogee_km,l1,l2
STARLINK-1522,46027,53.0547,0.0001353,15.06396003,546.2868068773432,548.16080951204,1 46027U 20055A   26039.83483440  .00002278  00000+0  17180-3 0  9993,2 46027  53.0547 256.1472 0001353  80.0139 280.1002 15.06396003304536
STARLINK-1523,46028,53.0545,0.0001286,15.06393082,546.3421581418206,548.1233632442709,1 46028U 20055B   26039.84957536  .00001321  00000+0  10758-3 0  9999,2 46028  53.0545 256.0833 0001286  99.6690 260.4444 15.06393082304555
STARLINK-1526,46029,53.0537,0.0001586,15.06389435,546.1455729140671,548.342303747706,1 46029U 20055C   26039.84221947  .00002469  00000+0  18465-3 0  9997,2 46029  53.0537 256.1152 0001586  91.0109 269.1062 15.06389435304544
STARLINK-1555,46032,53.0562,0.0001454,15.06398175,546.2102048124771,548.2240977996771,1 46032U 20055F   26039.82746086  .00000452  00000+0  49230-4 0  9990,2 46032  53.0562 256.1824 0001454 104.0657 256.0494 15.06398175304544
STARLINK-1556,46033,53.055,0.0001457,15.0640622,546.1834740923541,548.20151510708,1 46033U 20055G   26039.80902860  .00002951  00000+0  21686-3 0  9993,2 46033  53.0550 256.2656 0001457  87.2023 272.9133 15.06406220304513
STARLINK-1557,46034,53.055,0.0001372,15.06402517,546.2536869427768,548.1540004702892,1 46034U 20055H   26039.81272734  .00001737  00000+0  13548-3 0  9994,2 46034  53.0550 256.2498 0001372  88.0322 272.0824 15.06402517304518
STARLINK-1558,46035,53.0542,0.0001583,15.06413867,546.0727819575504,548.2653338554837,1 46035U 20055J   26039.82009529  .00004845  00000+0  34384-3 0  9990,2 46035  53.0542 256.2080 0001583  85.8907 274.2263 15.06413867304549
STARLINK-1560,46036,53.0551,0.0001564,15.06376432,546.2006555938469,548.3669272173993,1 46036U 20055K   26039.73900445  .00003041  00000+0  22308-3 0  9998,2 46036  53.0551 256.5772 0001564 119.5814 240.5331 15.06376432304539
STARLINK-1567,46038,53.055,0.0001399,15.06402793,546.2341427430765,548.1718528744623,1 46038U 20055M   26039.81640585  .00000161  00000+0  29689-4 0  9995,2 46038  53.0550 256.2328 0001399  85.4249 274.6899 15.06402793304530
STARLINK-1569,46039,53.0549,0.000178,15.06401404,545.9745436064632,548.4399661612015,1 46039U 20055N   26039.82376956 -.00000128  00000+0  10286-4 0  9992,2 46039  53.0549 256.1990 0001780  86.9776 273.1417 15.06401404304536
STARLINK-1582,46043,53.0558,0.0001348,15.06391648,546.3036152974455,548.1706961698319,1 46043U 20055S   26039.83115027  .00000574  00000+0  57433-4 0  9997,2 46043  53.0558 256.1668 0001348  98.4170 261.6972 15.06391648304535
STARLINK-1591,46045,53.0551,0.0001514,15.06395759,546.1760562833742,548.2730557625391,1 46045U 20055U   26038.92810306  .00002777  00000+0  20529-3 0  9992,2 46045  53.0551 260.2223 0001514  95.6778 264.4384 15.06395759304389
STARLINK-1524,46047,53.0556,0.0001425,15.06391845,546.2496862203434,548.2234176826496,1 46047U 20055W   26039.80995678  .00000746  00000+0  68960-4 0  9994,2 46047  53.0556 246.2633 0001425 101.3435 258.7714 15.06391845304678
STARLINK-1527,46048,53.055,0.0001401,15.06398158,546.2469612848363,548.1874455326315,1 46048U 20055X   26039.80626647  .00000802  00000+0  72727-4 0  9991,2 46048  53.0550 246.2775 0001401  98.3591 261.7557 15.06398158304653
STARLINK-1540,46051,53.0551,0.0001275,15.06404749,546.3140228901175,548.0799830608767,1 46051U 20055AA  26039.83943301  .00001795  00000+0  13932-3 0  9991,2 46051  53.0551 246.1316 0001275  90.3899 269.7236 15.06404749304690
STARLINK-1541,46052,53.0547,0.0003148,15.06593288,544.4393081340877,548.7991346510753,1 46052U 20055AB  26039.82457404  .00041180  00000+0  27528-2 0  9992,2 46052  53.0547 246.1996 0003148 150.0993 210.0176 15.06593288304655
STARLINK-1543,46053,53.0555,0.0001734,15.06400133,546.0102949431994,548.4120056817274,1 46053U 20055AC  26039.82838428  .00000633  00000+0  61419-4 0  9999,2 46053  53.0555 246.1814 0001734  91.1198 268.9990 15.06400133304680
STARLINK-1548,46054,53.056,0.0001488,15.06409079,546.1532445256889,548.2142199756063,1 46054U 20055AD  26039.83575484  .00001909  00000+0  14699-3 0  9995,2 46054  53.0560 246.1448 0001488  80.4900 279.6257 15.06409079304681
STARLINK-1554,46055,53.0543,0.0001442,15.06394555,546.2296084608288,548.2268837978127,1 46055U 20055AE  26039.82101917  .00003420  00000+0  24840-3 0  9990,2 46055  53.0543 246.2136 0001442  94.3809 265.7345 15.06394555304686
STARLINK-1564,46058,53.0549,0.0001574,15.06393602,546.1411140067221,548.3212199056788,1 46058U 20055AH  26039.83213295  .00001451  00000+0  11629-3 0  9990,2 46058  53.0549 246.6354 0001574  73.6483 286.4679 15.06393602304676
STARLINK-1570,46059,53.0556,0.0001473,15.06392185,546.2154025205546,548.2556172619688,1 46059U 20055AJ  26039.72886752  .00001240  00000+0  10214-3 0  9998,2 46059  53.0556 246.6284 0001473  92.3836 267.7322 15.06392185304622
STARLINK-1572,46060,53.0558,0.0001466,15.06394282,546.2138241724242,548.2443415079133,1 46060U 20055AK  26039.72517725 -.00000013  00000+0  18040-4 0  9995,2 46060  53.0558 246.6412 0001466  91.4838 268.6319 15.06394282304630
STARLINK-1573,46061,53.0538,0.0001302,15.06386241,546.3520417398549,548.155413485325,1 46061U 20055AL  26039.72149922  .00003004  00000+0  22057-3 0  9990,2 46061  53.0538 246.6971 0001302  89.0358 271.0780 15.06386241304667
STARLINK-1577,46063,53.0552,0.0001502,15.06395521,546.1850960469201,548.265474877473,1 46063U 20055AN  26039.81363700  .00000505  00000+0  52819-4 0  9997,2 46063  53.0552 246.2442 0001502 111.9802 248.1346 15.06395521304670
STARLINK-1583,46064,53.0549,0.0001325,15.06399918,546.2942005392524,548.129417973706,1 46064U 20055AP  26039.84681610  .00000389  00000+0  44995-4 0  9990,2 46064  53.0549 246.0959 0001325  92.0027 268.1114 15.06399918304689
STARLINK-1525,46066,53.0549,0.0001168,15.06414125,546.3593915307101,547.9771428411259,1 46066U 20055AR  26039.71225346  .00001987  00000+0  15220-3 0  9991,2 46066  53.0549 226.7127 0001168  97.0215 263.0907 15.06414125304932
STARLINK-1536,46070,53.0562,0.0001473,15.06395636,546.2048271893036,548.2450388147663,1 46070U 20055AV  26039.82285276  .00000072  00000+0  23714-4 0  9998,2 46070  53.0562 226.2068 0001473  98.4833 261.6323 15.06395636304965
STARLINK-1542,46073,53.0556,0.0001312,15.06409615,546.2734876402901,548.0906913693761,1 46073U 20055AY  26039.74913301  .00001851  00000+0  14306-3 0  9991,2 46073  53.0556 226.5318 0001312  68.7277 291.3852 15.06409615304944
